[{"OBJECT_NAME":"STARLINK-4564","OBJECT_ID":"2022-101AK","EPOCH":"2026-03-09T23:04:53.375232","MEAN_MOTION":15.08839988,"ECCENTRICITY":0.00015277,"INCLINATION":53.2181,"RA_OF_ASC_NODE":53.0847,"ARG_OF_PERICENTER":92.8162,"MEAN_ANOMALY":267.3005,"EPHEMERIS_TYPE":0,"CLASSIFICATION_TYPE":"U","NORAD_CAT_ID":53560,"ELEMENT_SET_NO":999,"REV_AT_EPOCH":19648,"BSTAR":4.7093745e-5,"MEAN_MOTION_DOT":4.62e-6,"MEAN_MOTION_DDOT":0},{"OBJECT_NAME":"FALCON 9 DEB","OBJECT_ID":"2021-041BJ","EPOCH":"2026-03-09T14:15:46.870272","MEAN_MOTION":15.11971801,"ECCENTRICITY":0.0009424,"INCLINATION":53.0285,"RA_OF_ASC_NODE":180.5194,"ARG_OF_PERICENTER":169.4294,"MEAN_ANOMALY":190.6897,"EPHEMERIS_TYPE":0,"CLASSIFICATION_TYPE":"U","NORAD_CAT_ID":48609,"ELEMENT_SET_NO":999,"REV_AT_EPOCH":26442,"BSTAR":0.00034424,"MEAN_MOTION_DOT":5.684e-5,"MEAN_MOTION_DDOT":0}]
